ONEWEB-0328             
1 49197U 21083M   24158.08961855  .00000285  00000+0  74497-3 0  9994
2 49197  87.8915 107.7454 0001988  78.3460 281.7892 13.13468997134907
ONEWEB-0331             
1 49198U 21083N   24158.44204555  .00000042  00000+0  74890-4 0  9991
2 49198  87.9135 122.9141 0001879  82.6937 277.4409 13.18684923133663
ONEWEB-0333             
1 49199U 21083P   24158.16103669  .00000333  00000+0  87823-3 0  9997
2 49199  87.8927 107.7562 0002190  85.6146 274.5234 13.13469434134929
ONEWEB-0334             
1 49200U 21083Q   24157.67927174  .00000181  00000+0  41239-3 0  9992
2 49200  87.9214  62.0142 0002543  94.5299 265.6125 13.20771230138910
ONEWEB-0335             
1 49201U 21083R   24157.85156660  .00000326  00000+0  85690-3 0  9997
2 49201  87.8926 107.8063 0002074  77.7446 282.3915 13.13467986133602
ONEWEB-0336             
1 49202U 21083S   24157.59287496 -.00000189  00000+0 -55322-3 0  9999
2 49202  87.8925 107.8540 0002093  86.3420 273.7948 13.13470071134869
ONEWEB-0337             
1 49203U 21083T   24157.83079241  .00000059  00000+0  12653-3 0  9998
2 49203  87.8924 107.8053 0002001  78.4716 281.6637 13.13469282133591
ONEWEB-0338             
1 49204U 21083U   24158.21587857  .00000123  00000+0  27056-3 0  9994
2 49204  87.9224  61.8904 0002376  81.2999 278.8404 13.20771560140300
ONEWEB-0339             
1 49205U 21083V   24158.22292977  .00000251  00000+0  65298-3 0  9994
2 49205  87.8924 107.7227 0002122  78.3420 281.7947 13.13469801134920
ONEWEB-0340             
1 49206U 21083W   24158.20016918  .00000002  00000+0 -28115-4 0  9995
2 49206  87.9136 122.9567 0001903  83.8051 276.3298 13.18688484133608
ONEWEB-0341             
1 49207U 21083X   24157.90457238 -.00000029  00000+0 -10630-3 0  9998
2 49207  87.9135 123.0297 0002320  64.8014 295.3358 13.18683760132296
ONEWEB-0342             
1 49208U 21083Y   24157.46462496  .00000072  00000+0  14573-3 0  9998
2 49208  87.9214  62.0510 0002141  81.0163 279.1212 13.20770311138873
ONEWEB-0343             
1 49209U 21083Z   24157.89984620  .00000005  00000+0 -19592-4 0  9998
2 49209  87.9128 123.0384 0002392  70.1371 290.0019 13.18684769132344
ONEWEB-0344             
1 49210U 21083AA  24157.58016555 -.00000250  00000+0 -71956-3 0  9993
2 49210  87.8927 107.8671 0001904  67.5835 292.5496 13.13469436133540
ONEWEB-0345             
1 49211U 21083AB  24157.59762988 -.00000059  00000+0 -19530-3 0  9990
2 49211  87.8922 107.8395 0001873  66.5563 293.5763 13.13469768134852
ONEWEB-0346             
1 49212U 21083AC  24157.90930980  .00000016  00000+0  78422-5 0  9993
2 49212  87.9130 123.0376 0001627  85.3824 274.7494 13.18688440132282
ONEWEB-0348             
1 49213U 21083AD  24158.43998300  .00002456  00000+0  60073-2 0  9993
2 49213  87.9221  61.8279 0001510  60.8595 299.2690 13.20758923140331
ONEWEB-0350             
1 49214U 21083AE  24158.36893434  .00000079  00000+0  18230-3 0  9996
2 49214  87.8923 107.6773 0001927  71.7689 288.3649 13.13470597134982
ONEWEB-0351             
1 49215U 21083AF  24158.43353934  .00000072  00000+0  14498-3 0  9996
2 49215  87.9217  61.8288 0002864  86.4148 273.7313 13.20773393140303
ONEWEB-0352             
1 49216U 21083AG  24158.34988555 -.00000316  00000+0 -90109-3 0  9996
2 49216  87.8928 107.7114 0002360  81.5150 278.6246 13.13469203135071
ONEWEB-0354             
1 49217U 21083AH  24158.45893439  .00000126  00000+0  27791-3 0  9999
2 49217  87.9223  61.8083 0001971  68.8960 291.2384 13.20770735140343
ONEWEB-0355             
1 49218U 21083AJ  24157.84680464  .00000304  00000+0  79832-3 0  9995
2 49218  87.8927 107.8113 0002134  78.3964 281.7404 13.13470114133586
ONEWEB-0357             
1 49219U 21083AK  24158.22850146  .00000120  00000+0  26378-3 0  9998
2 49219  87.9219  61.8729 0002148  75.6956 284.4416 13.20770464140300
ONEWEB-0332             
1 49279U 21090A   24158.51647836  .00000081  00000+0  18459-3 0  9991
2 49279  87.8969  77.0869 0002246  86.7170 273.4217 13.14502341130273
ONEWEB-0347             
1 49280U 21090B   24158.21901945  .00000101  00000+0  21603-3 0  9992
2 49280  87.9224  61.8734 0002227  91.9865 268.1523 13.20770961133232
ONEWEB-0349             
1 49281U 21090C   24158.47788794  .00003896  00000+0  95478-2 0  9990
2 49281  87.9224  61.8215 0002154  74.1220 286.0150 13.20751415133344
ONEWEB-0353             
1 49282U 21090D   24157.51901798  .00000076  00000+0  17003-3 0  9992
2 49282  87.8968  77.2703 0002229  85.1319 275.0065 13.14502686130141
ONEWEB-0356             
1 49283U 21090E   24157.71871266 -.00000013  00000+0 -64270-4 0  9993
2 49283  87.9221  61.9674 0001205 102.1582 257.9687 13.20769729131956
ONEWEB-0358             
1 49284U 21090F   24158.43050806  .00000030  00000+0  42104-4 0  9992
2 49284  87.9222  61.8119 0001633  76.8369 283.2947 13.20769926134061
ONEWEB-0359             
1 49285U 21090G   24158.20009425  .00000078  00000+0  15908-3 0  9992
2 49285  87.9218  61.8764 0001913  64.1206 296.0125 13.20770674134000
ONEWEB-0360             
1 49286U 21090H   24158.26638227  .00000079  00000+0  16342-3 0  9991
2 49286  87.9220  61.8679 0001921  75.6404 284.4943 13.20771557133330
ONEWEB-0361             
1 49287U 21090J   24158.47469983  .00000069  00000+0  13761-3 0  9997
2 49287  87.9223  61.8208 0001877  83.3075 276.8272 13.20771170133355
ONEWEB-0362             
1 49288U 21090K   24158.21971338  .00000017  00000+0  11074-4 0  9991
2 49288  87.9152  92.4412 0002395  75.8931 284.2468 13.19726061130003
ONEWEB-0363             
1 49289U 21090L   24158.49046568  .00000011  00000+0 -40459-5 0  9995
2 49289  87.9222  61.8129 0001577  82.3675 277.7638 13.20768915133360
ONEWEB-0364             
1 49290U 21090M   24157.46776475  .00000104  00000+0  22379-3 0  9991
2 49290  87.9223  62.0414 0001865  82.6520 277.4825 13.20769583133531
ONEWEB-0365             
1 49291U 21090N   24157.77429200  .00000034  00000+0  52603-4 0  9993
2 49291  87.9144  92.5109 0002183  79.8678 280.2701 13.19723642128633
ONEWEB-0366             
1 49292U 21090P   24158.20090558 -.00000027  00000+0 -10712-3 0  9991
2 49292  87.8970  77.1435 0002036  84.0648 276.0713 13.14502632131519
ONEWEB-0367             
1 49293U 21090Q   24158.18588871  .00000027  00000+0  35259-4 0  9991
2 49293  87.9221  61.8681 0002018  86.6297 273.5067 13.20770798133312
ONEWEB-0368             
1 49294U 21090R   24158.46208082  .00000058  00000+0  11043-3 0  9994
2 49294  87.9225  61.8431 0002049 104.4573 255.6788 13.20769575134504
ONEWEB-0369             
1 49295U 21090S   24157.54208930  .00000070  00000+0  14193-3 0  9998
2 49295  87.9151  92.5594 0002178  83.5877 276.5504 13.19723366129880
ONEWEB-0370             
1 49296U 21090T   24158.19535005  .00000042  00000+0  70246-4 0  9998
2 49296  87.9221  61.8705 0001975  67.9950 292.1392 13.20773207133351
ONEWEB-0371             
1 49297U 21090U   24158.53561676  .00000122  00000+0  27315-3 0  9997
2 49297  87.9153  92.3513 0002227  79.7065 280.4319 13.19725775130059
ONEWEB-0372             
1 49298U 21090V   24158.18416103  .00000061  00000+0  11812-3 0  9990
2 49298  87.9221  61.8809 0002090  80.7215 279.4154 13.20774490133320
ONEWEB-0373             
1 49299U 21090W   24157.68084169  .00000099  00000+0  21040-3 0  9993
2 49299  87.9220  61.9972 0001799  89.5365 270.5974 13.20770144133144
ONEWEB-0374             
1 49300U 21090X   24158.49268357 -.00000209  00000+0 -59884-3 0  9991
2 49300  87.8969  77.0705 0002021  83.0940 277.0419 13.14502736131546
ONEWEB-0375             
1 49301U 21090Y   24158.42577616  .00000022  00000+0  21724-4 0  9990
2 49301  87.9217  61.8252 0001210  82.6516 277.4755 13.20769746134032
ONEWEB-0376             
1 49302U 21090Z   24157.54842322  .00000036  00000+0  58201-4 0  9997
2 49302  87.9144  92.5571 0002345  84.2255 275.9145 13.19723208129913
ONEWEB-0377             
1 49303U 21090AA  24158.48746232 -.00000032  00000+0 -10970-3 0  9993
2 49303  87.9222  61.8045 0001882  71.5809 288.5528 13.20773714134027
ONEWEB-0378             
1 49304U 21090AB  24158.20653077  .00000034  00000+0  51434-4 0  9999
2 49304  87.9222  61.8630 0001823  81.0717 279.0623 13.20769431133297
ONEWEB-0379             
1 49305U 21090AC  24157.49839497 -.00000202  00000+0 -57843-3 0  9990
2 49305  87.8970  77.2714 0002039  81.6909 278.4451 13.14501483130125
ONEWEB-0380             
1 49306U 21090AD  24158.22759924  .00000068  00000+0  13791-3 0  9991
2 49306  87.9151  92.4256 0002082  78.6524 281.4842 13.19723487129979
ONEWEB-0381             
1 49307U 21090AE  24157.87812421  .00000005  00000+0 -19264-4 0  9998
2 49307  87.9221  61.9326 0001857  77.6691 282.4651 13.20772410131974
ONEWEB-0382             
1 49308U 21090AF  24158.16851841  .00000097  00000+0  20727-3 0  9996
2 49308  87.9222  61.8719 0001562  90.2717 269.8595 13.20773154133316
ONEWEB-0383             
1 49309U 21090AG  24158.17711189 -.00000099  00000+0 -30089-3 0  9994
2 49309  87.8966  77.1249 0001935  85.9459 274.1892 13.14502485131538
ONEWEB-0384             
1 49310U 21090AH  24158.16535555 -.00000011  00000+0 -59574-4 0  9991
2 49310  87.9225  61.8836 0001525  92.3541 267.7767 13.20769453133325
ONEWEB-0385             
1 49311U 21090AJ  24158.46366257  .00000110  00000+0  23857-3 0  9998
2 49311  87.9225  61.8257 0001563  84.1078 276.0234 13.20770264133345
ONEWEB-0386             
1 49312U 21090AK  24157.49618926  .00000753  00000+0  18192-2 0  9992
2 49312  87.9214  62.0138 0001727  87.7725 272.3606 13.20766084131913
ONEWEB-0387             
1 49313U 21090AL  24158.16221399  .00000096  00000+0  20433-3 0  9994
2 49313  87.9223  61.9428 0001559  73.5039 286.6265 13.20770860133310
ONEWEB-0388             
1 49314U 21090AM  24158.52612755 -.00000021  00000+0 -84074-4 0  9997
2 49314  87.9154  92.3697 0002065  85.1571 274.9798 13.19723520130017
